CCSDS_OEM_VERS = 1.0
CREATION_DATE  = 2017-05-11T11:23:04
ORIGINATOR     = GMAT USER

META_START
OBJECT_NAME          = MOPSSat_alt_35785_km_RAAN_90_166
OBJECT_ID            = SatId
CENTER_NAME          = Earth
REF_FRAME            = EME2000
TIME_SYSTEM          = UTC
START_TIME           = 2017-01-01T00:00:00.000
USEABLE_START_TIME   = 2017-01-01T00:00:00.000
USEABLE_STOP_TIME    = 2017-01-02T00:00:00.000
STOP_TIME            = 2017-01-02T00:00:00.000
INTERPOLATION        = Lagrange
INTERPOLATION_DEGREE = 7 
META_STOP


                                                                                   

2017-01-01T01:22:30.000  -2.383898162505609e+04   4.522115418323069e+03   4.160946616615651e+02  -3.021193986104938e+00  -3.776755121337262e+00   5.272785636309723e-02
2017-01-01T01:22:40.000  -2.386916033496436e+04   4.484341583122555e+03   4.166213601732297e+02  -3.014549576461786e+00  -3.778009431612874e+00   5.261187357732851e-02
2017-01-01T01:22:50.000  -2.389927265171622e+04   4.446555274914357e+03   4.171468997465665e+02  -3.007915361765647e+00  -3.779249742501329e+00   5.249606881871918e-02
2017-01-01T01:23:00.000  -2.392931867703634e+04   4.408756633653464e+03   4.176712821579227e+02  -3.001291344159069e+00  -3.780476121079120e+00   5.238044212434066e-02
2017-01-01T01:23:10.000  -2.395929851259795e+04   4.370945798715625e+03   4.181945091827437e+02  -2.994677525565763e+00  -3.781688634153366e+00   5.226499352744471e-02
2017-01-01T01:23:20.000  -2.398921226070843e+04   4.333122908032469e+03   4.187165826075395e+02  -2.988073907541290e+00  -3.782887348289976e+00   5.214972305485677e-02
2017-01-01T01:23:30.000  -2.401906002361667e+04   4.295288098963810e+03   4.192375042177961e+02  -2.981480491427730e+00  -3.784072329785972e+00   5.203463072967601e-02
2017-01-01T01:23:40.000  -2.404884190368969e+04   4.257441508075920e+03   4.197572758010579e+02  -2.974897278316689e+00  -3.785243644677226e+00   5.191971657062950e-02
2017-01-01T01:23:50.000  -2.407855800292735e+04   4.219583271747175e+03   4.202758991384582e+02  -2.968324269157954e+00  -3.786401358718586e+00   5.180498059396907e-02
2017-01-01T01:24:00.000  -2.410820842335989e+04   4.181713525673315e+03   4.207933760116571e+02  -2.961761464673982e+00  -3.787545537401219e+00   5.169042281197843e-02
2017-01-01T01:24:10.000  -2.413779326695333e+04   4.143832404984735e+03   4.213097082011911e+02  -2.955208865382559e+00  -3.788676245949046e+00   5.157604323336878e-02
2017-01-01T01:24:20.000  -2.416731263564693e+04   4.105940044205387e+03   4.218248974871254e+02  -2.948666471590664e+00  -3.789793549321484e+00   5.146184186317194e-02
2017-01-01T01:24:30.000  -2.419676663136375e+04   4.068036577233519e+03   4.223389456492409e+02  -2.942134283393721e+00  -3.790897512213702e+00   5.134781870272691e-02
2017-01-01T01:24:40.000  -2.422615535604390e+04   4.030122137298998e+03   4.228518544676106e+02  -2.935612300670059e+00  -3.791988199058387e+00   5.123397374958347e-02
2017-01-01T01:24:50.000  -2.425547891166253e+04   3.992196856945296e+03   4.233636257229176e+02  -2.929100523078954e+00  -3.793065674027541e+00   5.112030699746805e-02
2017-01-01T01:25:00.000  -2.428473740025778e+04   3.954260867986746e+03   4.238742611969407e+02  -2.922598950055959e+00  -3.794130001033290e+00   5.100681843620186e-02
2017-01-01T01:25:10.000  -2.431393092384168e+04   3.916314301626704e+03   4.243837626709989e+02  -2.916107580834583e+00  -3.795181243725467e+00   5.089350805207987e-02
2017-01-01T01:25:20.000  -2.434305958477636e+04   3.878357287959125e+03   4.248921319325187e+02  -2.909626414364017e+00  -3.796219465504654e+00   5.078037582643419e-02
2017-01-01T01:25:30.000  -2.437212348531217e+04   3.840389956578107e+03   4.253993707669732e+02  -2.903155449413987e+00  -3.797244729507123e+00   5.066742173746474e-02
2017-01-01T01:25:40.000  -2.440112272776022e+04   3.802412436351210e+03   4.259054809608904e+02  -2.896694684538058e+00  -3.798257098611340e+00   5.055464575959835e-02
2017-01-01T01:25:50.000  -2.443005741381178e+04   3.764424856309948e+03   4.264104642899799e+02  -2.890244118226932e+00  -3.799256635414676e+00   5.044204786616498e-02
2017-01-01T01:26:00.000  -2.445892764521549e+04   3.726427344764591e+03   4.269143225309472e+02  -2.883803748759403e+00  -3.800243402257784e+00   5.032962802679587e-02
2017-01-01T01:26:10.000  -2.448773352359943e+04   3.688420029535796e+03   4.274170574583913e+02  -2.877373574243627e+00  -3.801217461218814e+00   5.021738620814404e-02
2017-01-01T01:26:20.000  -2.451647515093640e+04   3.650403037351442e+03   4.279186708529244e+02  -2.870953592515427e+00  -3.802178874130919e+00   5.010532237210926e-02
2017-01-01T01:26:30.000  -2.454515262915537e+04   3.612376494348909e+03   4.284191644943897e+02  -2.864543801226278e+00  -3.803127702568524e+00   4.999343647737354e-02
2017-01-01T01:26:40.000  -2.457376606022889e+04   3.574340525962486e+03   4.289185401633885e+02  -2.858144197825554e+00  -3.804064007851185e+00   4.988172847909168e-02
2017-01-01T01:26:50.000  -2.460231554613293e+04   3.536295256969993e+03   4.294167996405780e+02  -2.851754779570896e+00  -3.804987851042100e+00   4.977019832907202e-02
2017-01-01T01:27:00.000  -2.463080118883265e+04   3.498240811517214e+03   4.299139447064235e+02  -2.845375543533266e+00  -3.805899292948859e+00   4.965884597586467e-02
2017-01-01T01:27:10.000  -2.465922309024652e+04   3.460177313165968e+03   4.304099771405720e+02  -2.839006486606640e+00  -3.806798394122886e+00   4.954767136493075e-02
2017-01-01T01:27:20.000  -2.468758135222484e+04   3.422104884917484e+03   4.309048987214777e+02  -2.832647605514187e+00  -3.807685214858802e+00   4.943667443875038e-02
2017-01-01T01:27:30.000  -2.471587607651909e+04   3.384023649260356e+03   4.313987112258666e+02  -2.826298896817057e+00  -3.808559815194794e+00   4.932585513697594e-02
2017-01-01T01:27:40.000  -2.474410736486426e+04   3.345933728057168e+03   4.318914164301739e+02  -2.819960356897387e+00  -3.809422254915491e+00   4.921521339613543e-02
2017-01-01T01:27:50.000  -2.477227531861138e+04   3.307835243049762e+03   4.323830161041302e+02  -2.813631982042795e+00  -3.810272593542379e+00   4.910474915110753e-02
2017-01-01T01:28:00.000  -2.480038003917045e+04   3.269728315252740e+03   4.328735120184917e+02  -2.807313768348132e+00  -3.811110890346975e+00   4.899446233340635e-02
2017-01-01T01:28:10.000  -2.482842162784260e+04   3.231613065182379e+03   4.333629059421120e+02  -2.801005711754806e+00  -3.811937204346614e+00   4.888435287186820e-02
2017-01-01T01:28:20.000  -2.485640018646426e+04   3.193489611982473e+03   4.338511996531831e+02  -2.794707807907497e+00  -3.812751594324162e+00   4.877442069015035e-02
2017-01-01T01:28:30.000  -2.488431581676074e+04   3.155358074301229e+03   4.343383949279544e+02  -2.788420052301030e+00  -3.813554118809444e+00   4.866466570929465e-02
2017-01-01T01:28:40.000  -2.491216862049188e+04   3.117218570095798e+03   4.348244935432749e+02  -2.782142440249227e+00  -3.814344836084418e+00   4.855508784718417e-02
2017-01-01T01:28:50.000  -2.493995869908097e+04   3.079071217127630e+03   4.353094972701164e+02  -2.775874966969512e+00  -3.815123804171916e+00   4.844568702001958e-02
2017-01-01T01:29:00.000  -2.496768615388993e+04   3.040916132599369e+03   4.357934078783764e+02  -2.769617627522980e+00  -3.815891080845549e+00   4.833646314127339e-02
2017-01-01T01:29:10.000  -2.499535108621420e+04   3.002753433156908e+03   4.362762271367887e+02  -2.763370416816807e+00  -3.816646723629675e+00   4.822741612173184e-02
2017-01-01T01:29:20.000  -2.502295359702350e+04   2.964583235259836e+03   4.367579568083997e+02  -2.757133329664819e+00  -3.817390789794324e+00   4.811854587055232e-02
2017-01-01T01:29:30.000  -2.505049378731067e+04   2.926405654688701e+03   4.372385986566554e+02  -2.750906360709687e+00  -3.818123336364157e+00   4.800985229390507e-02
2017-01-01T01:29:40.000  -2.507797175795108e+04   2.888220806742430e+03   4.377181544429487e+02  -2.744689504456269e+00  -3.818844420115624e+00   4.790133529555542e-02
2017-01-01T01:29:50.000  -2.510538761032157e+04   2.850028805379126e+03   4.381966259374206e+02  -2.738482755133059e+00  -3.819554097593955e+00   4.779299477444506e-02
2017-01-01T01:30:00.000  -2.513274144567782e+04   2.811829764080118e+03   4.386740149080949e+02  -2.732286106834414e+00  -3.820252425097367e+00   4.768483062717500e-02
2017-01-01T01:30:10.000  -2.516003336529454e+04   2.773623795657748e+03   4.391503231233241e+02  -2.726099553490382e+00  -3.820939458681654e+00   4.757684274747857e-02
2017-01-01T01:30:20.000  -2.518726347010195e+04   2.735411012751672e+03   4.396255523454444e+02  -2.719923088949964e+00  -3.821615254150386e+00   4.746903102767511e-02
2017-01-01T01:30:30.000  -2.521443186095551e+04   2.697191527464909e+03   4.400997043354848e+02  -2.713756706921944e+00  -3.822279867063780e+00   4.736139535763687e-02
2017-01-01T01:30:40.000  -2.524153863863109e+04   2.658965451365888e+03   4.405727808530819e+02  -2.707600400977154e+00  -3.822933352738755e+00   4.725393562482878e-02
2017-01-01T01:30:50.000  -2.526858390357110e+04   2.620732895859325e+03   4.410447836520491e+02  -2.701454164608049e+00  -3.823575766244807e+00   4.714665171534829e-02
2017-01-01T01:31:00.000  -2.529556775622647e+04   2.582493971692716e+03   4.415157144863450e+02  -2.695317991151930e+00  -3.824207162411745e+00   4.703954351258508e-02
2017-01-01T01:31:10.000  -2.532249029691635e+04   2.544248789157720e+03   4.419855751076253e+02  -2.689191873824288e+00  -3.824827595827358e+00   4.693261089780325e-02
2017-01-01T01:31:20.000  -2.534935162644464e+04   2.505997457215026e+03   4.424543672760021e+02  -2.683075805579886e+00  -3.825437120852355e+00   4.682585374771639e-02
2017-01-01T01:31:30.000  -2.537615184547869e+04   2.467740084376451e+03   4.429220927492019e+02  -2.676969779255431e+00  -3.826035791606669e+00   4.671927193697815e-02
